NORAD_CAT_ID,OBJECT_NAME,OBJECT_TYPE,EPOCH,MEAN_MOTION,ECCENTRICITY,INCLINATION,RA_OF_ASC_NODE,ARG_OF_PERICENTER,MEAN_ANOMALY,BSTAR,MEAN_MOTION_DOT,MEAN_MOTION_DDOT,TLE_LINE0,TLE_LINE1,TLE_LINE2,SEMIMAJOR_AXIS,PERIOD,APOGEE,PERIGEE,DECAYED
51120.0,STARLINK-3398,PAYLOAD,2024-03-06 04:18:31,15.08848858,0.0001308,53.219,341.9804,97.0107,263.1034,5.8868e-05,6.49e-06,0.0,0 STARLINK-3398,1 51120U 22005S   24066.17952842  .00000649  00000-0  58868-4 0  9992,2 51120  53.2190 341.9804 0001308  97.0107 263.1034 15.08848858119258,6917.853,95.437,540.623,538.813,0.0
51120.0,STARLINK-3398,PAYLOAD,2024-03-07 00:58:32,15.08830455,0.0001211,53.2194,338.1179,85.0266,275.0864,0.00025849,3.827e-05,0.0,0 STARLINK-3398,1 51120U 22005S   24067.04065428  .00003827  00000-0  25849-3 0  9997,2 51120  53.2194 338.1179 0001211  85.0266 275.0864 15.08830455119382,6917.91,95.438,540.612,538.937,0.0
51120.0,STARLINK-3398,PAYLOAD,2024-03-07 10:30:49,15.0885338,9.56e-05,53.2184,336.3344,71.8664,288.2432,0.00023567,3.466e-05,0.0,0 STARLINK-3398,1 51120U 22005S   24067.43807847  .00003466  00000-0  23567-3 0  9993,2 51120  53.2184 336.3344 0000956  71.8664 288.2432 15.08853380118338,6917.839,95.437,540.366,539.043,0.0
51120.0,STARLINK-3398,PAYLOAD,2024-03-08 02:24:43,15.08839056,0.0001399,53.2188,333.3568,87.5666,272.5486,-4.5521e-05,-1.012e-05,0.0,0 STARLINK-3398,1 51120U 22005S   24068.10049953 -.00001012  00000-0 -45521-4 0  9996,2 51120  53.2188 333.3568 0001399  87.5666 272.5486 15.08839056119548,6917.883,95.438,540.716,538.78,0.0
51120.0,STARLINK-3398,PAYLOAD,2024-03-08 10:21:38,15.08842961,0.0001284,53.218,331.8702,83.1054,277.0084,5.1812e-07,-2.8e-06,0.0,0 STARLINK-3398,1 51120U 22005S   24068.43169523 -.00000280  00000-0  51812-6 0  9995,2 51120  53.2180 331.8702 0001284  83.1054 277.0084 15.08842961118484,6917.871,95.437,540.625,538.848,0.0
51120.0,STARLINK-3398,PAYLOAD,2024-03-09 03:50:53,15.08830026,0.0001666,53.2201,328.6011,93.982,266.1363,0.0001503,2.104e-05,0.0,0 STARLINK-3398,1 51120U 22005S   24069.16034053  .00002104  00000-0  15030-3 0  9990,2 51120  53.2201 328.6011 0001666  93.9820 266.1363 15.08830026119703,6917.911,95.438,540.928,538.623,0.0
51120.0,STARLINK-3398,PAYLOAD,2024-03-09 10:12:24,15.08855227,0.0001469,53.2193,327.4136,86.7077,273.4083,6.6569e-05,7.72e-06,0.0,0 STARLINK-3398,1 51120U 22005S   24069.42528569  .00000772  00000-0  66569-4 0  9992,2 51120  53.2193 327.4136 0001469  86.7077 273.4083 15.08855227119747,6917.834,95.437,540.715,538.683,0.0
51120.0,STARLINK-3398,PAYLOAD,2024-03-09 16:33:57,15.08839912,0.0002408,53.2185,326.225,82.3302,277.7964,0.00023148,3.398e-05,0.0,0 STARLINK-3398,1 51120U 22005S   24069.69025140  .00003398  00000-0  23148-3 0  9990,2 51120  53.2185 326.2250 0002408  82.3302 277.7964 15.08839912119781,6917.881,95.438,541.411,538.08,0.0
51120.0,STARLINK-3398,PAYLOAD,2024-03-10 00:30:54,15.08834856,0.0001638,53.2186,324.7415,102.113,258.0045,5.1108e-05,5.25e-06,0.0,0 STARLINK-3398,1 51120U 22005S   24070.02145985  .00000525  00000-0  51108-4 0  9996,2 51120  53.2186 324.7415 0001638 102.1130 258.0045 15.08834856119832,6917.896,95.438,540.894,538.628,0.0
51120.0,STARLINK-3398,PAYLOAD,2024-03-10 10:03:12,15.08846125,0.0001649,53.2204,322.9516,82.4717,277.6463,0.0001184,1.597e-05,0.0,0 STARLINK-3398,1 51120U 22005S   24070.41889138  .00001597  00000-0  11840-3 0  9992,2 51120  53.2204 322.9516 0001649  82.4717 277.6463 15.08846125119897,6917.862,95.437,540.867,538.586,0.0
51120.0,STARLINK-3398,PAYLOAD,2024-03-10 21:10:55,15.08826349,0.0001517,53.2197,320.8692,85.2482,274.8684,-5.0384e-05,-1.089e-05,0.0,0 STARLINK-3398,1 51120U 22005S   24070.88259000 -.00001089  00000-0 -50384-4 0  9997,2 51120  53.2197 320.8692 0001517  85.2482 274.8684 15.08826349119962,6917.922,95.438,540.837,538.738,0.0
51120.0,STARLINK-3398,PAYLOAD,2024-03-10 22:46:19,15.08823347,0.0001241,53.2187,320.5743,87.9046,272.2088,-4.906e-05,-1.068e-05,0.0,0 STARLINK-3398,1 51120U 22005S   24070.94883213 -.00001068  00000-0 -49060-4 0  9999,2 51120  53.2187 320.5743 0001241  87.9046 272.2088 15.08823347118867,6917.931,95.439,540.655,538.938,0.0
51120.0,STARLINK-3398,PAYLOAD,2024-03-11 09:53:59,15.0884495,0.0001358,53.2184,318.4932,82.5684,277.5462,-3.1022e-05,-7.82e-06,0.0,0 STARLINK-3398,1 51120U 22005S   24071.41249856 -.00000782  00000-0 -31022-4 0  9992,2 51120  53.2184 318.4932 0001358  82.5684 277.5462 15.08844950120048,6917.865,95.437,540.67,538.791,0.0
51120.0,STARLINK-3398,PAYLOAD,2024-03-11 16:15:32,15.08841325,0.0002053,53.2193,317.3033,84.4508,275.6718,-6.2007e-05,-1.275e-05,0.0,0 STARLINK-3398,1 51120U 22005S   24071.67746443 -.00001275  00000-0 -62007-4 0  9999,2 51120  53.2193 317.3033 0002053  84.4508 275.6718 15.08841325120087,6917.876,95.437,541.162,538.321,0.0
51120.0,STARLINK-3398,PAYLOAD,2024-03-12 16:06:19,15.08836177,0.0001544,53.2161,312.8423,85.1741,274.9427,0.00017672,2.525e-05,0.0,0 STARLINK-3398,1 51120U 22005S   24072.67105669  .00002525  00000-0  17672-3 0  9993,2 51120  53.2161 312.8423 0001544  85.1741 274.9427 15.08836177119127,6917.892,95.438,540.825,538.689,0.0
51120.0,STARLINK-3398,PAYLOAD,2024-03-13 01:38:38,15.08813332,0.0001433,53.2167,311.0599,89.0946,271.021,0.00037065,5.612e-05,0.0,0 STARLINK-3398,1 51120U 22005S   24073.06850581  .00005612  00000-0  37065-3 0  9995,2 51120  53.2167 311.0599 0001433  89.0946 271.0210 15.08813332120291,6917.962,95.439,540.818,538.836,0.0
51120.0,STARLINK-3398,PAYLOAD,2024-03-13 15:57:06,15.0882138,0.0001019,53.2151,308.3798,105.424,254.6865,0.00026472,3.926e-05,0.0,0 STARLINK-3398,1 51120U 22005S   24073.66466390  .00003926  00000-0  26472-3 0  9998,2 51120  53.2151 308.3798 0001019 105.4240 254.6865 15.08821380120389,6917.937,95.439,540.507,539.097,0.0
51120.0,STARLINK-3398,PAYLOAD,2024-03-14 01:29:25,15.08842645,0.000115,53.2152,306.5977,81.7123,278.4,1.2617e-05,-8.7e-07,0.0,0 STARLINK-3398,1 51120U 22005S   24074.06209851 -.00000087  00000-0  12617-4 0  9993,2 51120  53.2152 306.5977 0001150  81.7123 278.4000 15.08842645120440,6917.872,95.437,540.533,538.942,0.0
51120.0,STARLINK-3398,PAYLOAD,2024-03-14 20:34:03,15.08835438,0.000122,53.2174,303.024,111.1919,248.9204,9.6935e-06,-1.34e-06,0.0,0 STARLINK-3398,1 51120U 22005S   24074.85698270 -.00000134  00000-0  96935-5 0  9996,2 51120  53.2174 303.0240 0001220 111.1919 248.9204 15.08835438120561,6917.894,95.438,540.603,538.915,0.0
51120.0,STARLINK-3398,PAYLOAD,2024-03-14 22:09:26,15.08834208,0.000106,53.2169,302.7273,99.3859,260.7253,-4.4969e-06,-3.59e-06,0.0,0 STARLINK-3398,1 51120U 22005S   24074.92322441 -.00000359  00000-0 -44969-5 0  9998,2 51120  53.2169 302.7273 0001060  99.3859 260.7253 15.08834208119466,6917.898,95.438,540.496,539.03,0.0
51120.0,STARLINK-3398,PAYLOAD,2024-03-15 23:35:36,15.08836922,0.0001014,53.2168,297.9691,87.4623,272.6486,2.5896e-05,1.24e-06,0.0,0 STARLINK-3398,1 51120U 22005S   24075.98306476  .00000124  00000-0  25896-4 0  9990,2 51120  53.2168 297.9691 0001014  87.4623 272.6486 15.08836922120737,6917.89,95.438,540.456,539.053,0.0
51120.0,STARLINK-3398,PAYLOAD,2024-03-16 21:51:01,15.08834685,0.000105,53.2167,293.8103,88.2662,271.8451,5.3791e-05,5.68e-06,0.0,0 STARLINK-3398,1 51120U 22005S   24076.91042858  .00000568  00000-0  53791-4 0  9992,2 51120  53.2167 293.8103 0001050  88.2662 271.8451 15.08834685119769,6917.897,95.438,540.488,539.035,0.0
51120.0,STARLINK-3398,PAYLOAD,2024-03-16 23:26:24,15.08835126,0.0001077,53.2169,293.5121,86.2668,273.8448,5.7917e-05,6.34e-06,0.0,0 STARLINK-3398,1 51120U 22005S   24076.97666846  .00000634  00000-0  57917-4 0  9995,2 51120  53.2169 293.5121 0001077  86.2668 273.8448 15.08835126119771,6917.895,95.438,540.505,539.015,0.0
51120.0,STARLINK-3398,PAYLOAD,2024-03-17 20:06:24,15.08840226,0.0001156,53.2168,289.6469,84.89,275.2224,7.2009e-05,8.58e-06,0.0,0 STARLINK-3398,1 51120U 22005S   24077.83778603  .00000858  00000-0  72009-4 0  9993,2 51120  53.2168 289.6469 0001156  84.8900 275.2224 15.08840226121017,6917.88,95.438,540.544,538.945,0.0
51120.0,STARLINK-3398,PAYLOAD,2024-03-17 21:41:47,15.088417,0.0001238,53.2173,289.3499,81.2234,278.8899,8.0076e-05,9.87e-06,0.0,0 STARLINK-3398,1 51120U 22005S   24077.90402532  .00000987  00000-0  80076-4 0  9992,2 51120  53.2173 289.3499 0001238  81.2234 278.8899 15.08841700119916,6917.875,95.437,540.597,538.884,0.0
51120.0,STARLINK-3398,PAYLOAD,2024-03-18 13:35:39,15.08841501,0.0001246,53.2171,286.3777,80.8212,279.2921,6.6122e-05,7.65e-06,0.0,0 STARLINK-3398,1 51120U 22005S   24078.56642563  .00000765  00000-0  66122-4 0  9995,2 51120  53.2171 286.3777 0001246  80.8212 279.2921 15.08841501120013,6917.876,95.437,540.603,538.879,0.0
51120.0,STARLINK-3398,PAYLOAD,2024-03-19 19:47:58,15.08847915,0.0001437,53.2173,280.7286,72.3242,287.7907,6.0564e-05,6.76e-06,0.0,0 STARLINK-3398,1 51120U 22005S   24079.82498021  .00000676  00000-0  60564-4 0  9998,2 51120  53.2173 280.7286 0001437  72.3242 287.7907 15.08847915121316,6917.856,95.437,540.715,538.727,0.0
51120.0,STARLINK-3398,PAYLOAD,2024-03-19 22:58:44,15.08851444,0.000129,53.217,280.1307,82.3106,277.8033,9.4311e-05,1.214e-05,0.0,0 STARLINK-3398,1 51120U 22005S   24079.95745547  .00001214  00000-0  94311-4 0  9996,2 51120  53.2170 280.1307 0001290  82.3106 277.8033 15.08851444120229,6917.845,95.437,540.603,538.818,0.0
51120.0,STARLINK-3398,PAYLOAD,2024-03-20 19:38:45,15.08836256,0.0001063,53.2159,276.2662,88.8281,271.2833,-2.0678e-05,-6.17e-06,0.0,0 STARLINK-3398,1 51120U 22005S   24080.81858764 -.00000617  00000-0 -20678-4 0  9992,2 51120  53.2159 276.2662 0001063  88.8281 271.2833 15.08836256121466,6917.892,95.438,540.492,539.021,0.0
51120.0,STARLINK-3398,PAYLOAD,2024-03-21 13:08:00,15.08843883,9.35e-05,53.2165,272.9926,100.9318,259.178,-0.00011388,-2.1e-05,0.0,0 STARLINK-3398,1 51120U 22005S   24081.54722840 -.00002100  00000-0 -11388-3 0  9994,2 51120  53.2165 272.9926 0000935 100.9318 259.1780 15.08843883120462,6917.869,95.437,540.38,539.087,0.0
